[{"OBJECT_NAME":"ONEWEB-0290","OBJECT_ID":"2021-075F","EPOCH":"2025-11-18T07:17:21.471936","MEAN_MOTION":13.17648071,"ECCENTRICITY":0.000216,"INCLINATION":87.9139,"RA_OF_ASC_NODE":47.7769,"ARG_OF_PERICENTER":90.1618,"MEAN_ANOMALY":269.9761,"EPHEMERIS_TYPE":0,"CLASSIFICATION_TYPE":"U","NORAD_CAT_ID":49080,"ELEMENT_SET_NO":999,"REV_AT_EPOCH":20584,"BSTAR":2.4082e-5,"MEAN_MOTION_DOT":2.2e-7,"MEAN_MOTION_DDOT":0},{"OBJECT_NAME":"ONEWEB-0291","OBJECT_ID":"2021-075G","EPOCH":"2025-11-18T06:55:28.280064","MEAN_MOTION":13.17650976,"ECCENTRICITY":0.0001513,"INCLINATION":87.9137,"RA_OF_ASC_NODE":47.7861,"ARG_OF_PERICENTER":92.5596,"MEAN_ANOMALY":267.5709,"EPHEMERIS_TYPE":0,"CLASSIFICATION_TYPE":"U","NORAD_CAT_ID":49081,"ELEMENT_SET_NO":999,"REV_AT_EPOCH":20583,"BSTAR":-0.00034947,"MEAN_MOTION_DOT":-1.23e-6,"MEAN_MOTION_DDOT":0},{"OBJECT_NAME":"ONEWEB-0293","OBJECT_ID":"2021-075H","EPOCH":"2025-11-18T05:42:34.116768","MEAN_MOTION":13.17646996,"ECCENTRICITY":0.0001767,"INCLINATION":87.9135,"RA_OF_ASC_NODE":47.8195,"ARG_OF_PERICENTER":98.0557,"MEAN_ANOMALY":262.0775,"EPHEMERIS_TYPE":0,"CLASSIFICATION_TYPE":"U","NORAD_CAT_ID":49082,"ELEMENT_SET_NO":999,"REV_AT_EPOCH":20585,"BSTAR":0.00028254,"MEAN_MOTION_DOT":1.23e-6,"MEAN_MOTION_DDOT":0},{"OBJECT_NAME":"ONEWEB-0294","OBJECT_ID":"2021-075J","EPOCH":"2025-11-18T05:29:21.168672","MEAN_MOTION":13.1244233,"ECCENTRICITY":0.0001924,"INCLINATION":87.8969,"RA_OF_ASC_NODE":32.5635,"ARG_OF_PERICENTER":85.1131,"MEAN_ANOMALY":275.0217,"EPHEMERIS_TYPE":0,"CLASSIFICATION_TYPE":"U","NORAD_CAT_ID":49083,"ELEMENT_SET_NO":999,"REV_AT_EPOCH":20690,"BSTAR":-0.0010586,"MEAN_MOTION_DOT":-3.68e-6,"MEAN_MOTION_DDOT":0},{"OBJECT_NAME":"ONEWEB-0295","OBJECT_ID":"2021-075K","EPOCH":"2025-11-18T05:41:22.397856","MEAN_MOTION":13.17650491,"ECCENTRICITY":0.0001412,"INCLINATION":87.9132,"RA_OF_ASC_NODE":47.8241,"ARG_OF_PERICENTER":94.6343,"MEAN_ANOMALY":265.4949,"EPHEMERIS_TYPE":0,"CLASSIFICATION_TYPE":"U","NORAD_CAT_ID":49084,"ELEMENT_SET_NO":999,"REV_AT_EPOCH":20581,"BSTAR":0.00014706,"MEAN_MOTION_DOT":7.0e-7,"MEAN_MOTION_DDOT":0},{"OBJECT_NAME":"ONEWEB-0296","OBJECT_ID":"2021-075L","EPOCH":"2025-11-18T05:01:20.229024","MEAN_MOTION":13.12441711,"ECCENTRICITY":0.0001531,"INCLINATION":87.897,"RA_OF_ASC_NODE":32.5729,"ARG_OF_PERICENTER":87.4811,"MEAN_ANOMALY":272.6492,"EPHEMERIS_TYPE":0,"CLASSIFICATION_TYPE":"U","NORAD_CAT_ID":49085,"ELEMENT_SET_NO":999,"REV_AT_EPOCH":20690,"BSTAR":0.00026034,"MEAN_MOTION_DOT":1.06e-6,"MEAN_MOTION_DDOT":0},{"OBJECT_NAME":"ONEWEB-0297","OBJECT_ID":"2021-075M","EPOCH":"2025-11-18T05:45:42.420384","MEAN_MOTION":13.12442697,"ECCENTRICITY":0.0001743,"INCLINATION":87.8961,"RA_OF_ASC_NODE":32.6003,"ARG_OF_PERICENTER":100.9433,"MEAN_ANOMALY":259.1892,"EPHEMERIS_TYPE":0,"CLASSIFICATION_TYPE":"U","NORAD_CAT_ID":49086,"ELEMENT_SET_NO":999,"REV_AT_EPOCH":20751,"BSTAR":-0.00062584,"MEAN_MOTION_DOT":-2.12e-6,"MEAN_MOTION_DDOT":0},{"OBJECT_NAME":"ONEWEB-0298","OBJECT_ID":"2021-075N","EPOCH":"2025-11-18T05:47:37.608000","MEAN_MOTION":13.17646947,"ECCENTRICITY":0.0001768,"INCLINATION":87.9135,"RA_OF_ASC_NODE":47.8198,"ARG_OF_PERICENTER":104.5666,"MEAN_ANOMALY":255.5662,"EPHEMERIS_TYPE":0,"CLASSIFICATION_TYPE":"U","NORAD_CAT_ID":49087,"ELEMENT_SET_NO":999,"REV_AT_EPOCH":20584,"BSTAR":0.00021172,"MEAN_MOTION_DOT":9.5e-7,"MEAN_MOTION_DDOT":0},{"OBJECT_NAME":"ONEWEB-0299","OBJECT_ID":"2021-075P","EPOCH":"2025-11-18T05:49:52.036032","MEAN_MOTION":13.17648899,"ECCENTRICITY":0.0001506,"INCLINATION":87.9142,"RA_OF_ASC_NODE":47.7791,"ARG_OF_PERICENTER":102.2996,"MEAN_ANOMALY":257.8304,"EPHEMERIS_TYPE":0,"CLASSIFICATION_TYPE":"U","NORAD_CAT_ID":49088,"ELEMENT_SET_NO":999,"REV_AT_EPOCH":20582,"BSTAR":-0.00085532,"MEAN_MOTION_DOT":-3.19e-6,"MEAN_MOTION_DDOT":0},{"OBJECT_NAME":"ONEWEB-0300","OBJECT_ID":"2021-075Q","EPOCH":"2025-11-18T05:34:01.668864","MEAN_MOTION":13.12442351,"ECCENTRICITY":0.000183,"INCLINATION":87.8969,"RA_OF_ASC_NODE":32.5594,"ARG_OF_PERICENTER":111.176,"MEAN_ANOMALY":248.9564,"EPHEMERIS_TYPE":0,"CLASSIFICATION_TYPE":"U","NORAD_CAT_ID":49089,"ELEMENT_SET_NO":999,"REV_AT_EPOCH":20753,"BSTAR":-0.0011446,"MEAN_MOTION_DOT":-3.99e-6,"MEAN_MOTION_DDOT":0},{"OBJECT_NAME":"ONEWEB-0301","OBJECT_ID":"2021-075R","EPOCH":"2025-11-18T05:10:39.652608","MEAN_MOTION":13.1244022,"ECCENTRICITY":0.0001906,"INCLINATION":87.8968,"RA_OF_ASC_NODE":32.5652,"ARG_OF_PERICENTER":113.4462,"MEAN_ANOMALY":246.6868,"EPHEMERIS_TYPE":0,"CLASSIFICATION_TYPE":"U","NORAD_CAT_ID":49090,"ELEMENT_SET_NO":999,"REV_AT_EPOCH":20689,"BSTAR":-0.0006028,"MEAN_MOTION_DOT":-2.04e-6,"MEAN_MOTION_DDOT":0},{"OBJECT_NAME":"ONEWEB-0302","OBJECT_ID":"2021-075S","EPOCH":"2025-11-18T06:41:46.305024","MEAN_MOTION":13.1244106,"ECCENTRICITY":0.0001768,"INCLINATION":87.897,"RA_OF_ASC_NODE":32.5605,"ARG_OF_PERICENTER":90.487,"MEAN_ANOMALY":269.6461,"EPHEMERIS_TYPE":0,"CLASSIFICATION_TYPE":"U","NORAD_CAT_ID":49091,"ELEMENT_SET_NO":999,"REV_AT_EPOCH":20688,"BSTAR":0.00071671,"MEAN_MOTION_DOT":2.71e-6,"MEAN_MOTION_DDOT":0},{"OBJECT_NAME":"ONEWEB-0304","OBJECT_ID":"2021-075T","EPOCH":"2025-11-18T07:02:45.760416","MEAN_MOTION":13.17648819,"ECCENTRICITY":0.0001578,"INCLINATION":87.9141,"RA_OF_ASC_NODE":47.7998,"ARG_OF_PERICENTER":99.8707,"MEAN_ANOMALY":260.2602,"EPHEMERIS_TYPE":0,"CLASSIFICATION_TYPE":"U","NORAD_CAT_ID":49092,"ELEMENT_SET_NO":999,"REV_AT_EPOCH":20580,"BSTAR":-0.0010349,"MEAN_MOTION_DOT":-3.89e-6,"MEAN_MOTION_DDOT":0},{"OBJECT_NAME":"ONEWEB-0305","OBJECT_ID":"2021-075U","EPOCH":"2025-11-18T06:53:03.109056","MEAN_MOTION":13.17648491,"ECCENTRICITY":0.0001291,"INCLINATION":87.9142,"RA_OF_ASC_NODE":47.7779,"ARG_OF_PERICENTER":99.2284,"MEAN_ANOMALY":260.8993,"EPHEMERIS_TYPE":0,"CLASSIFICATION_TYPE":"U","NORAD_CAT_ID":49093,"ELEMENT_SET_NO":999,"REV_AT_EPOCH":20583,"BSTAR":0.00012612,"MEAN_MOTION_DOT":6.2e-7,"MEAN_MOTION_DDOT":0},{"OBJECT_NAME":"ONEWEB-0308","OBJECT_ID":"2021-075V","EPOCH":"2025-11-18T06:32:24.859680","MEAN_MOTION":13.12449216,"ECCENTRICITY":0.0001792,"INCLINATION":87.8962,"RA_OF_ASC_NODE":32.5542,"ARG_OF_PERICENTER":97.521,"MEAN_ANOMALY":262.6123,"EPHEMERIS_TYPE":0,"CLASSIFICATION_TYPE":"U","NORAD_CAT_ID":49094,"ELEMENT_SET_NO":999,"REV_AT_EPOCH":20689,"BSTAR":0.0023036,"MEAN_MOTION_DOT":8.42e-6,"MEAN_MOTION_DDOT":0},{"OBJECT_NAME":"ONEWEB-0309","OBJECT_ID":"2021-075W","EPOCH":"2025-11-18T06:57:54.525024","MEAN_MOTION":13.1765161,"ECCENTRICITY":0.0001881,"INCLINATION":87.9139,"RA_OF_ASC_NODE":47.7937,"ARG_OF_PERICENTER":89.4047,"MEAN_ANOMALY":270.73,"EPHEMERIS_TYPE":0,"CLASSIFICATION_TYPE":"U","NORAD_CAT_ID":49095,"ELEMENT_SET_NO":999,"REV_AT_EPOCH":20580,"BSTAR":7.7088e-5,"MEAN_MOTION_DOT":4.3e-7,"MEAN_MOTION_DDOT":0},{"OBJECT_NAME":"ONEWEB-0310","OBJECT_ID":"2021-075X","EPOCH":"2025-11-18T05:03:39.638016","MEAN_MOTION":13.12441382,"ECCENTRICITY":0.00018,"INCLINATION":87.8965,"RA_OF_ASC_NODE":32.6057,"ARG_OF_PERICENTER":97.553,"MEAN_ANOMALY":262.5803,"EPHEMERIS_TYPE":0,"CLASSIFICATION_TYPE":"U","NORAD_CAT_ID":49096,"ELEMENT_SET_NO":999,"REV_AT_EPOCH":20751,"BSTAR":-3.9137e-5,"MEAN_MOTION_DOT":-1.0e-8,"MEAN_MOTION_DDOT":0}]
