ONEWEB-0290             
1 49080U 21075F   25322.30372074  .00000022  00000+0  24082-4 0  9999
2 49080  87.9139  47.7769 0002160  90.1618 269.9761 13.17648071205841
ONEWEB-0291             
1 49081U 21075G   25322.28852176 -.00000123  00000+0 -34947-3 0  9997
2 49081  87.9137  47.7861 0001513  92.5596 267.5709 13.17650976205837
ONEWEB-0293             
1 49082U 21075H   25322.23789487  .00000123  00000+0  28254-3 0  9999
2 49082  87.9135  47.8195 0001767  98.0557 262.0775 13.17646996205858
ONEWEB-0294             
1 49083U 21075J   25322.22871723 -.00000368  00000+0 -10586-2 0  9995
2 49083  87.8969  32.5635 0001924  85.1131 275.0217 13.12442330206906
ONEWEB-0295             
1 49084U 21075K   25322.23706479  .00000070  00000+0  14706-3 0  9999
2 49084  87.9132  47.8241 0001412  94.6343 265.4949 13.17650491205812
ONEWEB-0296             
1 49085U 21075L   25322.20926191  .00000106  00000+0  26034-3 0  9999
2 49085  87.8970  32.5729 0001531  87.4811 272.6492 13.12441711206908
ONEWEB-0297             
1 49086U 21075M   25322.24007431 -.00000212  00000+0 -62584-3 0  9991
2 49086  87.8961  32.6003 0001743 100.9433 259.1892 13.12442697207517
ONEWEB-0298             
1 49087U 21075N   25322.24140750  .00000095  00000+0  21172-3 0  9999
2 49087  87.9135  47.8198 0001768 104.5666 255.5662 13.17646947205848
ONEWEB-0299             
1 49088U 21075P   25322.24296338 -.00000319  00000+0 -85532-3 0  9995
2 49088  87.9142  47.7791 0001506 102.2996 257.8304 13.17648899205820
ONEWEB-0300             
1 49089U 21075Q   25322.23196376 -.00000399  00000+0 -11446-2 0  9996
2 49089  87.8969  32.5594 0001830 111.1760 248.9564 13.12442351207537
ONEWEB-0301             
1 49090U 21075R   25322.21573672 -.00000204  00000+0 -60280-3 0  9990
2 49090  87.8968  32.5652 0001906 113.4462 246.6868 13.12440220206894
ONEWEB-0302             
1 49091U 21075S   25322.27900816  .00000271  00000+0  71671-3 0  9999
2 49091  87.8970  32.5605 0001768  90.4870 269.6461 13.12441060206885
ONEWEB-0304             
1 49092U 21075T   25322.29358519 -.00000389  00000+0 -10349-2 0  9995
2 49092  87.9141  47.7998 0001578  99.8707 260.2602 13.17648819205802
ONEWEB-0305             
1 49093U 21075U   25322.28684154  .00000062  00000+0  12612-3 0  9994
2 49093  87.9142  47.7779 0001291  99.2284 260.8993 13.17648491205835
ONEWEB-0308             
1 49094U 21075V   25322.27250995  .00000842  00000+0  23036-2 0  9993
2 49094  87.8962  32.5542 0001792  97.5210 262.6123 13.12449216206892
ONEWEB-0309             
1 49095U 21075W   25322.29021441  .00000043  00000+0  77088-4 0  9999
2 49095  87.9139  47.7937 0001881  89.4047 270.7300 13.17651610205808
ONEWEB-0310             
1 49096U 21075X   25322.21087544 -.00000001  00000+0 -39137-4 0  9997
2 49096  87.8965  32.6057 0001800  97.5530 262.5803 13.12441382207514
